[{"OBJECT_NAME":"COSMOS 2545 (760)","OBJECT_ID":"2020-018A","EPOCH":"2026-06-26T03:22:01.496640","MEAN_MOTION":2.13102504,"ECCENTRICITY":0.0008747,"INCLINATION":64.3491,"RA_OF_ASC_NODE":312.1035,"ARG_OF_PERICENTER":229.5751,"MEAN_ANOMALY":130.3383,"EPHEMERIS_TYPE":0,"CLASSIFICATION_TYPE":"U","NORAD_CAT_ID":45358,"ELEMENT_SET_NO":999,"REV_AT_EPOCH":4885,"BSTAR":0,"MEAN_MOTION_DOT":-8.6e-7,"MEAN_MOTION_DDOT":0},{"OBJECT_NAME":"BEIDOU-3 G3 (C61)","OBJECT_ID":"2020-040A","EPOCH":"2026-06-26T18:12:44.409312","MEAN_MOTION":1.00274671,"ECCENTRICITY":0.0002643,"INCLINATION":2.471,"RA_OF_ASC_NODE":67.4792,"ARG_OF_PERICENTER":328.6673,"MEAN_ANOMALY":262.452,"EPHEMERIS_TYPE":0,"CLASSIFICATION_TYPE":"U","NORAD_CAT_ID":45807,"ELEMENT_SET_NO":999,"REV_AT_EPOCH":2216,"BSTAR":0,"MEAN_MOTION_DOT":-3.45e-6,"MEAN_MOTION_DDOT":0},{"OBJECT_NAME":"GPS BIII-3  (PRN 23)","OBJECT_ID":"2020-041A","EPOCH":"2026-06-26T17:02:29.374080","MEAN_MOTION":2.00558725,"ECCENTRICITY":0.0064532,"INCLINATION":56.6762,"RA_OF_ASC_NODE":28.5735,"ARG_OF_PERICENTER":204.5005,"MEAN_ANOMALY":157.1,"EPHEMERIS_TYPE":0,"CLASSIFICATION_TYPE":"U","NORAD_CAT_ID":45854,"ELEMENT_SET_NO":999,"REV_AT_EPOCH":4423,"BSTAR":0,"MEAN_MOTION_DOT":-8.1e-7,"MEAN_MOTION_DDOT":0},{"OBJECT_NAME":"GALAXY 30 (WAAS/PRN 135)","OBJECT_ID":"2020-056C","EPOCH":"2026-06-26T15:22:53.277024","MEAN_MOTION":1.00270787,"ECCENTRICITY":0.0002295,"INCLINATION":0.0274,"RA_OF_ASC_NODE":17.4127,"ARG_OF_PERICENTER":76.1713,"MEAN_ANOMALY":286.885,"EPHEMERIS_TYPE":0,"CLASSIFICATION_TYPE":"U","NORAD_CAT_ID":46114,"ELEMENT_SET_NO":999,"REV_AT_EPOCH":2138,"BSTAR":0,"MEAN_MOTION_DOT":0,"MEAN_MOTION_DDOT":0},{"OBJECT_NAME":"COSMOS 2547 (705K)","OBJECT_ID":"2020-075A","EPOCH":"2026-06-26T07:55:04.781280","MEAN_MOTION":2.13100201,"ECCENTRICITY":0.0009406,"INCLINATION":64.5999,"RA_OF_ASC_NODE":192.1702,"ARG_OF_PERICENTER":239.7382,"MEAN_ANOMALY":120.222,"EPHEMERIS_TYPE":0,"CLASSIFICATION_TYPE":"U","NORAD_CAT_ID":46805,"ELEMENT_SET_NO":999,"REV_AT_EPOCH":4410,"BSTAR":0,"MEAN_MOTION_DOT":1.06e-6,"MEAN_MOTION_DDOT":0},{"OBJECT_NAME":"GPS BIII-4  (PRN 14)","OBJECT_ID":"2020-078A","EPOCH":"2026-06-26T05:54:20.346912","MEAN_MOTION":2.00565126,"ECCENTRICITY":0.0073823,"INCLINATION":53.9789,"RA_OF_ASC_NODE":210.4109,"ARG_OF_PERICENTER":207.4122,"MEAN_ANOMALY":155.8219,"EPHEMERIS_TYPE":0,"CLASSIFICATION_TYPE":"U","NORAD_CAT_ID":46826,"ELEMENT_SET_NO":999,"REV_AT_EPOCH":4169,"BSTAR":0,"MEAN_MOTION_DOT":8.3e-7,"MEAN_MOTION_DDOT":0},{"OBJECT_NAME":"GPS BIII-5  (PRN 11)","OBJECT_ID":"2021-054A","EPOCH":"2026-06-26T17:35:14.333856","MEAN_MOTION":2.00568715,"ECCENTRICITY":0.0025695,"INCLINATION":55.1697,"RA_OF_ASC_NODE":332.0757,"ARG_OF_PERICENTER":228.3266,"MEAN_ANOMALY":312.6633,"EPHEMERIS_TYPE":0,"CLASSIFICATION_TYPE":"U","NORAD_CAT_ID":48859,"ELEMENT_SET_NO":999,"REV_AT_EPOCH":3694,"BSTAR":0,"MEAN_MOTION_DOT":-1.05e-6,"MEAN_MOTION_DDOT":0},{"OBJECT_NAME":"QZS-1R (QZSS/PRN 196)","OBJECT_ID":"2021-096A","EPOCH":"2026-06-26T14:51:13.875840","MEAN_MOTION":1.00253032,"ECCENTRICITY":0.0755635,"INCLINATION":37.4804,"RA_OF_ASC_NODE":79.4425,"ARG_OF_PERICENTER":271.9684,"MEAN_ANOMALY":279.4688,"EPHEMERIS_TYPE":0,"CLASSIFICATION_TYPE":"U","NORAD_CAT_ID":49336,"ELEMENT_SET_NO":999,"REV_AT_EPOCH":1710,"BSTAR":0,"MEAN_MOTION_DOT":-3.12e-6,"MEAN_MOTION_DDOT":0},{"OBJECT_NAME":"GSAT0223 (GALILEO 27)","OBJECT_ID":"2021-116A","EPOCH":"2026-06-23T10:34:17.397696","MEAN_MOTION":1.70476308,"ECCENTRICITY":0.00016008,"INCLINATION":57.159,"RA_OF_ASC_NODE":341.5051,"ARG_OF_PERICENTER":183.5383,"MEAN_ANOMALY":174.0725,"EPHEMERIS_TYPE":0,"CLASSIFICATION_TYPE":"U","NORAD_CAT_ID":49809,"ELEMENT_SET_NO":999,"REV_AT_EPOCH":2828,"BSTAR":0,"MEAN_MOTION_DOT":-9.8e-7,"MEAN_MOTION_DDOT":0},{"OBJECT_NAME":"GSAT0224 (GALILEO 28)","OBJECT_ID":"2021-116B","EPOCH":"2026-06-25T14:50:06.558144","MEAN_MOTION":1.7047648,"ECCENTRICITY":0.00013732,"INCLINATION":57.1582,"RA_OF_ASC_NODE":341.4456,"ARG_OF_PERICENTER":160.1269,"MEAN_ANOMALY":206.588,"EPHEMERIS_TYPE":0,"CLASSIFICATION_TYPE":"U","NORAD_CAT_ID":49810,"ELEMENT_SET_NO":999,"REV_AT_EPOCH":2835,"BSTAR":0,"MEAN_MOTION_DOT":-9.7e-7,"MEAN_MOTION_DDOT":0},{"OBJECT_NAME":"COSMOS 2557 (706K)","OBJECT_ID":"2022-075A","EPOCH":"2026-06-26T11:51:33.448896","MEAN_MOTION":2.13102239,"ECCENTRICITY":0.0010292,"INCLINATION":64.2926,"RA_OF_ASC_NODE":314.1567,"ARG_OF_PERICENTER":273.4812,"MEAN_ANOMALY":86.3901,"EPHEMERIS_TYPE":0,"CLASSIFICATION_TYPE":"U","NORAD_CAT_ID":52984,"ELEMENT_SET_NO":999,"REV_AT_EPOCH":3091,"BSTAR":0,"MEAN_MOTION_DOT":-8.6e-7,"MEAN_MOTION_DDOT":0},{"OBJECT_NAME":"COSMOS 2559 (707K)","OBJECT_ID":"2022-130A","EPOCH":"2026-06-26T07:31:50.945376","MEAN_MOTION":2.13101803,"ECCENTRICITY":0.001274,"INCLINATION":64.2654,"RA_OF_ASC_NODE":314.2468,"ARG_OF_PERICENTER":178.9915,"MEAN_ANOMALY":181.0006,"EPHEMERIS_TYPE":0,"CLASSIFICATION_TYPE":"U","NORAD_CAT_ID":54031,"ELEMENT_SET_NO":999,"REV_AT_EPOCH":2888,"BSTAR":0,"MEAN_MOTION_DOT":-8.6e-7,"MEAN_MOTION_DDOT":0},{"OBJECT_NAME":"COSMOS 2564 (761)","OBJECT_ID":"2022-161A","EPOCH":"2026-06-26T03:46:07.714272","MEAN_MOTION":2.13102114,"ECCENTRICITY":0.00122568,"INCLINATION":64.7425,"RA_OF_ASC_NODE":192.4139,"ARG_OF_PERICENTER":225.0447,"MEAN_ANOMALY":134.9097,"EPHEMERIS_TYPE":0,"CLASSIFICATION_TYPE":"U","NORAD_CAT_ID":54377,"ELEMENT_SET_NO":999,"REV_AT_EPOCH":2782,"BSTAR":0,"MEAN_MOTION_DOT":1.07e-6,"MEAN_MOTION_DDOT":0},{"OBJECT_NAME":"GPS BIII-6  (PRN 28)","OBJECT_ID":"2023-009A","EPOCH":"2026-06-25T22:24:46.712736","MEAN_MOTION":2.00571086,"ECCENTRICITY":0.00062645,"INCLINATION":55.124,"RA_OF_ASC_NODE":148.1751,"ARG_OF_PERICENTER":317.1527,"MEAN_ANOMALY":45.3707,"EPHEMERIS_TYPE":0,"CLASSIFICATION_TYPE":"U","NORAD_CAT_ID":55268,"ELEMENT_SET_NO":999,"REV_AT_EPOCH":2542,"BSTAR":0,"MEAN_MOTION_DOT":4.4e-7,"MEAN_MOTION_DDOT":0},{"OBJECT_NAME":"BEIDOU-3 G4 (C62)","OBJECT_ID":"2023-066A","EPOCH":"2026-06-26T18:21:06.108192","MEAN_MOTION":1.00271192,"ECCENTRICITY":0.0004803,"INCLINATION":0.4763,"RA_OF_ASC_NODE":333.9519,"ARG_OF_PERICENTER":175.4517,"MEAN_ANOMALY":180.8125,"EPHEMERIS_TYPE":0,"CLASSIFICATION_TYPE":"U","NORAD_CAT_ID":56564,"ELEMENT_SET_NO":999,"REV_AT_EPOCH":1148,"BSTAR":0,"MEAN_MOTION_DOT":-2.69e-6,"MEAN_MOTION_DDOT":0},{"OBJECT_NAME":"NVS-01 (IRNSS-1J)","OBJECT_ID":"2023-076A","EPOCH":"2026-06-26T16:35:24.470016","MEAN_MOTION":1.00274943,"ECCENTRICITY":0.000281,"INCLINATION":2.1438,"RA_OF_ASC_NODE":243.9063,"ARG_OF_PERICENTER":12.8994,"MEAN_ANOMALY":36.3982,"EPHEMERIS_TYPE":0,"CLASSIFICATION_TYPE":"U","NORAD_CAT_ID":56759,"ELEMENT_SET_NO":999,"REV_AT_EPOCH":1121,"BSTAR":0,"MEAN_MOTION_DOT":-3.22e-6,"MEAN_MOTION_DDOT":0},{"OBJECT_NAME":"COSMOS 2569 (703K)","OBJECT_ID":"2023-114A","EPOCH":"2026-06-26T15:19:34.559616","MEAN_MOTION":2.13103862,"ECCENTRICITY":0.0010334,"INCLINATION":65.3074,"RA_OF_ASC_NODE":72.3017,"ARG_OF_PERICENTER":296.7175,"MEAN_ANOMALY":63.2173,"EPHEMERIS_TYPE":0,"CLASSIFICATION_TYPE":"U","NORAD_CAT_ID":57517,"ELEMENT_SET_NO":999,"REV_AT_EPOCH":2246,"BSTAR":0,"MEAN_MOTION_DOT":-5.8e-7,"MEAN_MOTION_DDOT":0}]
